KUIPER-00008            
1 63724U 25088A   25228.47350395  .00003208  00000+0  28467-3 0  9992
2 63724  51.8910 302.5690 0011440 127.0160 233.1858 14.98796170 17279
KUIPER-00009            
1 63725U 25088B   25228.91670139 -.00028277  00000+0 -23708-2 0  9990
2 63725  51.8891 292.9891 0013181 142.8658 237.6324 14.97694297 17446
KUIPER-00010            
1 63726U 25088C   25228.56610148  .00013294  00000+0  37547-3 0  9994
2 63726  51.8642 289.3774 0008790 140.4090 219.7540 15.36648058 17084
KUIPER-00011            
1 63727U 25088D   25228.46986628  .00011853  00000+0  34279-3 0  9991
2 63727  51.8573 290.1538 0009876 150.9856 209.1680 15.36010018 17209
KUIPER-00012            
1 63728U 25088E   25228.46603719  .00012606  00000+0  36078-3 0  9995
2 63728  51.8555 290.1150 0010333 150.9211 209.2352 15.36270959 17158
KUIPER-00013            
1 63729U 25088F   25228.91670139 -.00034745  00000+0 -33705-2 0  9999
2 63729  51.8931 293.9458 0008141  87.1154 189.6414 14.92147006  4973
KUIPER-00014            
1 63730U 25088G   25228.91670139 -.00034504  00000+0 -31991-2 0  9999
2 63730  51.8912 294.9886 0009269 136.1870  73.7426 14.93919672 17036
KUIPER-00015            
1 63731U 25088H   25228.52117666  .00000249  00000+0  60542-4 0  9991
2 63731  51.9001 308.6151 0011246 120.5320 239.6754 14.81158544 17273
